MEAN_MOTION;ECCENTRICITY;INCLINATION;RA_OF_ASC_NODE;ARG_OF_PERICENTER;MEAN_ANOMALY;BSTAR;MEAN_MOTION_DOT;MEAN_MOTION_DDOT;TYPE
14.30366382;0.0346709;31.4334;53.1;189.8981;169.4671;-5.0011E-6;4.5E-7;0;Amateur
14.30366342;0.0346752;31.4337;47.5571;198.4677;160.3078;-1.2099E-5;1.0E-7;0;Amateur
14.30366351;0.0346772;31.4338;46.3694;200.303;158.3498;-1.3931E-5;0;0;Amateur
14.30366266;0.0346807;31.4341;41.6183;207.6477;150.5306;-1.7001E-5;-1.5E-7;0;Amateur
14.30366242;0.0346818;31.4342;39.6387;210.7067;147.2833;-1.8515E-5;-2.2E-7;0;Amateur
14.30366166;0.0346845;31.4344;36.0754;216.2148;141.4523;-1.8284E-5;-2.0E-7;0;Amateur
14.30366156;0.0346853;31.4345;34.0958;219.2733;138.2246;-1.8224E-5;-2.0E-7;0;Amateur
14.30365935;0.0346902;31.4347;28.5527;227.8425;129.2237;-1.7194E-5;-1.4E-7;0;Amateur
14.3036584;0.0346929;31.4348;24.5933;233.9618;122.8386;-1.3787E-5;3.0E-8;0;Amateur
14.30365903;0.0346936;31.4349;19.4464;241.9127;114.6012;-6.3679E-6;4.1E-7;0;Amateur
14.30365765;0.0346952;31.435;17.4666;244.9753;111.4466;-5.929E-6;4.3E-7;0;Amateur
14.30365996;0.0346982;31.4352;7.964;259.6593;96.4746;8.5459E-6;1.17E-6;0;Amateur
14.30366116;0.0346985;31.4352;2.8168;267.6143;88.472;1.5298E-5;1.51E-6;0;Amateur
14.30366128;0.0346984;31.4352;2.4209;268.226;87.8598;1.5465E-5;1.51E-6;0;Amateur
14.30366281;0.0346938;31.4351;356.8779;276.7968;79.3303;2.1402E-5;1.81E-6;0;Amateur
14.30366278;0.034694;31.4351;356.4819;277.408;78.7254;2.0945E-5;1.78E-6;0;Amateur
14.30366255;0.0346927;31.4351;354.8981;279.8578;76.3053;1.9223E-5;1.69E-6;0;Amateur
14.303664;0.0346908;31.435;349.7507;287.8135;68.4936;2.1665E-5;1.81E-6;0;Amateur
14.30366587;0.0346895;31.4349;344.999;295.1538;61.3488;2.4015E-5;1.92E-6;0;Amateur
14.30366647;0.0346895;31.4349;344.2071;296.3781;60.1626;2.5064E-5;1.97E-6;0;Amateur
14.30366703;0.0346893;31.4347;340.2473;302.4987;54.2558;2.3117E-5;1.86E-6;0;Amateur
14.30366721;0.0346886;31.4347;339.4553;303.7201;53.0815;2.2147E-5;1.8E-6;0;Amateur
14.30366763;0.0346882;31.4347;338.6633;304.9427;51.9075;2.2228E-5;1.81E-6;0;Amateur
14.30366898;0.0346855;31.4345;334.7035;311.0634;46.0505;2.1881E-5;1.78E-6;0;Amateur
14.30367159;0.0346803;31.4342;328.3675;320.8552;36.7454;1.9628E-5;1.64E-6;0;Amateur
14.30367299;0.0346768;31.4339;322.8233;329.4225;28.6598;1.5726E-5;1.43E-6;0;Amateur
14.30367328;0.0346764;31.4339;322.4273;330.0358;28.0827;1.5712E-5;1.43E-6;0;Amateur
14.30367338;0.0346766;31.4339;321.6353;331.2604;26.9309;1.4855E-5;1.38E-6;0;Amateur
14.30367435;0.0346726;31.4336;316.091;339.83;18.8917;9.9237E-6;1.11E-6;0;Amateur
14.30367435;0.0346726;31.4336;316.091;339.83;18.8917;9.9237E-6;1.11E-6;0;Amateur
14.3036762;0.0346572;31.4325;293.9139;14.1166;346.8869;9.7479E-10;5.5E-7;0;Amateur
14.3036762;0.0346572;31.4325;293.9139;14.1166;346.8869;9.7479E-10;5.5E-7;0;Amateur
14.30367568;0.0346531;31.4322;288.7656;22.0766;339.4396;3.8793E-7;5.6E-7;0;Amateur
14.30367618;0.0346511;31.4318;283.2214;30.6525;331.3865;4.094E-6;7.4E-7;0;Amateur
14.30367634;0.0346511;31.4318;282.8254;31.2647;330.8102;4.7316E-6;7.7E-7;0;Amateur
14.3036768;0.0346491;31.4316;278.0731;38.6147;323.8731;8.2835E-6;9.5E-7;0;Amateur
14.30367798;0.0346469;31.4314;273.717;45.3519;317.4814;1.3744E-5;1.23E-6;0;Amateur
14.30367927;0.034645;31.4312;268.1729;53.9271;309.293;1.7857E-5;1.44E-6;0;Amateur
14.30368062;0.0346448;31.4311;262.6288;62.5026;301.0372;2.0073E-5;1.55E-6;0;Amateur
14.30368079;0.0346433;31.4309;256.6888;71.6923;292.1065;1.693E-5;1.39E-6;0;Amateur
14.30368235;0.0346425;31.4308;249.561;82.7215;281.2644;1.1679E-5;1.13E-6;0;Amateur
14.30368249;0.0346445;31.4307;244.0173;91.2988;272.7341;5.2376E-6;8.1E-7;0;Amateur
14.30368302;0.0346442;31.4306;234.1182;106.6142;257.2812;-1.7787E-6;4.7E-7;0;Amateur
14.30368363;0.0346423;31.4306;232.9303;108.4531;255.4066;-1.5457E-6;4.9E-7;0;Amateur
14.30368482;0.034643;31.4306;226.9909;117.6394;245.9838;3.7563E-7;6.0E-7;0;Amateur
14.30368558;0.0346424;31.4307;222.6355;124.3787;239.0103;4.2327E-6;8.1E-7;0;Amateur
14.30368675;0.0346424;31.4307;217.0921;132.9557;230.0665;1.0627E-5;1.15E-6;0;Amateur
14.30368824;0.034642;31.4307;215.9043;134.7915;228.1429;1.4711E-5;1.36E-6;0;Amateur
14.30369006;0.0346418;31.4308;211.153;142.1421;220.4101;2.2232E-5;1.76E-6;0;Amateur
14.30369055;0.0346415;31.4309;210.3612;143.3656;219.1186;2.3783E-5;1.84E-6;0;Amateur
14.30369292;0.0346437;31.431;204.8177;151.9428;210.0338;3.1295E-5;2.24E-6;0;Amateur
14.30369531;0.0346452;31.4312;200.0663;159.2939;202.2106;3.6062E-5;2.5E-6;0;Amateur
14.30369837;0.0346459;31.4314;194.5234;167.8658;193.0565;3.8889E-5;2.66E-6;0;Amateur
14.30370031;0.0346475;31.4316;189.3764;175.8259;184.5369;3.6447E-5;2.55E-6;0;Amateur
14.30370216;0.0346495;31.4317;184.6252;183.1751;176.6653;3.2357E-5;2.35E-6;0;Amateur
14.30370241;0.0346508;31.4318;183.4373;185.0122;174.6978;2.9644E-5;2.21E-6;0;Amateur
14.30370415;0.0346536;31.4319;177.4984;194.1951;164.872;1.9372E-5;1.7E-6;0;Amateur
14.30370482;0.0346511;31.4319;177.1027;194.8088;164.2163;2.0296E-5;1.75E-6;0;Amateur
14.30370638;0.0346563;31.432;171.5594;203.3777;155.0741;1.0953E-5;1.28E-6;0;Amateur
14.30370812;0.0346603;31.4321;166.0162;211.9456;145.9713;4.5668E-6;9.6E-7;0;Amateur
14.30370857;0.0346617;31.4322;162.0568;218.0678;139.4976;5.5434E-7;7.6E-7;0;Amateur
14.3037091;0.0346629;31.4322;160.473;220.5147;136.9184;-9.5743E-7;6.9E-7;0;Amateur
14.30370898;0.0346656;31.4323;156.1176;227.247;129.8491;-4.6186E-6;5.0E-7;0;Amateur
14.30370899;0.034666;31.4323;154.9298;229.0831;127.9283;-5.6503E-6;4.5E-7;0;Amateur
14.30370891;0.0346692;31.4325;148.9904;238.2623;118.377;-6.914E-6;3.8E-7;0;Amateur
14.30370913;0.0346706;31.4326;143.4469;246.8281;109.5462;-4.9226E-6;4.8E-7;0;Amateur
14.30370874;0.034672;31.4327;139.0913;253.5591;102.6662;-3.639E-6;5.5E-7;0;Amateur
14.30370892;0.0346721;31.4327;137.9034;255.3954;100.7985;-2.6844E-6;5.9E-7;0;Amateur
14.30370936;0.0346729;31.4328;132.3598;263.9638;92.1377;1.9535E-6;8.3E-7;0;Amateur
14.30371051;0.0346733;31.4328;126.8161;272.5308;83.5674;7.9558E-6;1.12E-6;0;Amateur
14.30371121;0.034673;31.4329;122.4602;279.262;76.8954;1.1009E-5;1.27E-6;0;Amateur
14.30371091;0.0346728;31.4329;121.2723;281.0979;75.085;1.0164E-5;1.23E-6;0;Amateur
14.30371265;0.034672;31.4329;116.5203;288.4415;67.8821;1.5774E-5;1.5E-6;0;Amateur
14.30371253;0.0346718;31.4329;115.7283;289.6651;66.6877;1.5492E-5;1.49E-6;0;Amateur
14.3037138;0.03467;31.4329;110.1843;298.2358;58.3677;1.8395E-5;1.62E-6;0;Amateur
14.30371627;0.0346678;31.4329;104.2441;307.4153;49.539;2.2651E-5;1.82E-6;0;Amateur
14.30371856;0.0346649;31.4329;99.0959;315.3722;41.948;2.5935E-5;1.98E-6;0;Amateur
14.30372057;0.0346616;31.433;93.9478;323.3307;34.4054;2.6851E-5;2.01E-6;0;Amateur
14.30372131;0.0346613;31.433;93.5517;323.9423;33.8276;2.8241E-5;2.08E-6;0;Amateur
14.3037256;0.0346578;31.433;88.0076;332.5143;25.7533;3.3757E-5;2.34E-6;0;Amateur
14.30372694;0.0346542;31.4331;82.4634;341.0853;17.7173;2.726E-5;2.0E-6;0;Amateur
14.30373046;0.0346502;31.4331;76.9193;349.6584;9.7054;2.6995E-5;1.97E-6;0;Amateur
14.3037306;0.0346499;31.4331;76.5232;350.271;9.1335;2.6613E-5;1.95E-6;0;Amateur
14.3037338;0.034646;31.4331;70.9791;358.8465;1.1343;2.5111E-5;1.86E-6;0;Amateur
14.3037359;0.0346429;31.433;65.4349;7.4225;353.1362;1.9523E-5;1.56E-6;0;Amateur
14.30373882;0.03464;31.433;60.2868;15.3872;345.6991;1.8947E-5;1.52E-6;0;Amateur
14.30373895;0.0346385;31.433;55.5349;22.7348;338.8221;1.1832E-5;1.14E-6;0;Amateur
14.30373919;0.0346393;31.433;54.347;24.5702;337.1011;1.0907E-5;1.1E-6;0;Amateur
14.30374012;0.0346377;31.433;50.7829;30.0834;331.9214;1.1024E-5;1.1E-6;0;Amateur
14.30374029;0.0346375;31.433;48.8029;33.1451;329.0379;9.266E-6;1.0E-6;0;Amateur
14.3037414;0.0346364;31.433;43.2589;41.7212;320.9292;1.0136E-5;1.04E-6;0;Amateur
14.30374336;0.0346349;31.433;32.9633;57.6484;305.7183;1.4689E-5;1.27E-6;0;Amateur
14.30374327;0.0346349;31.433;32.1713;58.8737;304.5387;1.4653E-5;1.27E-6;0;Amateur
14.30374412;0.0346344;31.4329;27.4196;66.2248;297.4298;1.627E-5;1.36E-6;0;Amateur
14.30374444;0.0346346;31.4329;21.8761;74.8006;289.0641;1.5952E-5;1.34E-6;0;Amateur
14.30374446;0.0346344;31.4329;21.0841;76.0255;287.8625;1.5688E-5;1.33E-6;0;Amateur
14.30374525;0.0346342;31.4328;16.3325;83.3772;280.6145;1.4746E-5;1.29E-6;0;Amateur
14.30374576;0.0346357;31.4327;10.3932;92.5649;271.4665;1.0447E-5;1.08E-6;0;Amateur
14.30374581;0.0346358;31.4327;9.9972;93.1772;270.8531;1.0127E-5;1.06E-6;0;Amateur
14.30374617;0.0346349;31.4327;5.2455;100.5321;263.4508;6.0917E-6;8.6E-7;0;Amateur
14.3037467;0.0346365;31.4326;359.7023;109.108;254.7374;1.6831E-6;6.5E-7;0;Amateur
14.30374666;0.0346365;31.4326;359.3064;109.721;254.1112;9.9812E-7;6.2E-7;0;Amateur
14.30374721;0.0346377;31.4326;353.7632;118.2968;245.3052;-2.1607E-6;4.7E-7;0;Amateur
14.30374726;0.0346376;31.4326;353.3672;118.9094;244.6729;-2.3809E-6;4.6E-7;0;Amateur
14.30374835;0.0346395;31.4327;347.8242;127.4833;235.7813;-2.3829E-6;4.7E-7;0;Amateur
14.30374836;0.0346397;31.4327;347.4283;128.0957;235.1432;-2.5118E-6;4.7E-7;0;Amateur
14.30374925;0.0346424;31.4328;342.2812;136.06;226.8119;-6.6232E-7;5.8E-7;0;Amateur
14.30375001;0.0346442;31.4328;338.7179;141.5734;221.0102;3.1748E-6;7.8E-7;0;Amateur
14.30375197;0.034646;31.433;331.1956;153.2058;208.6919;1.0998E-5;1.21E-6;0;Amateur
14.30375216;0.0346462;31.4329;330.7996;153.8177;208.0415;1.1661E-5;1.24E-6;0;Amateur
14.30375456;0.034651;31.433;325.2568;162.3927;198.9048;2.0496E-5;1.71E-6;0;Amateur
14.30375456;0.034651;31.433;325.2568;162.3927;198.9048;2.0496E-5;1.71E-6;0;Amateur
14.30375767;0.0346534;31.4332;319.714;170.9642;189.742;3.0358E-5;2.23E-6;0;Amateur
14.30375922;0.034654;31.4332;316.1508;176.4746;183.8423;3.4717E-5;2.46E-6;0;Amateur
14.30376021;0.0346546;31.4333;314.1712;179.5359;180.5633;3.5694E-5;2.52E-6;0;Amateur
14.30376327;0.0346577;31.4334;308.6281;188.1073;171.384;3.9048E-5;2.7E-6;0;Amateur
14.30376646;0.0346611;31.4335;303.0852;196.6779;162.2192;3.9011E-5;2.71E-6;0;Amateur
14.30376846;0.034663;31.4336;299.5218;202.1883;156.3407;3.7994E-5;2.66E-6;0;Amateur
